[{"OBJECT_NAME":"STARLINK-32439","OBJECT_ID":"2024-193E","EPOCH":"2026-03-09T10:32:17.355264","MEAN_MOTION":15.30197118,"ECCENTRICITY":0.00011892,"INCLINATION":53.1591,"RA_OF_ASC_NODE":92.4983,"ARG_OF_PERICENTER":105.7947,"MEAN_ANOMALY":254.3185,"EPHEMERIS_TYPE":0,"CLASSIFICATION_TYPE":"U","NORAD_CAT_ID":61665,"ELEMENT_SET_NO":999,"REV_AT_EPOCH":7648,"BSTAR":1.14186e-7,"MEAN_MOTION_DOT":-3.56e-6,"MEAN_MOTION_DDOT":0},{"OBJECT_NAME":"FLOCK 4G-13","OBJECT_ID":"2025-009N","EPOCH":"2026-03-09T16:57:12.071808","MEAN_MOTION":15.32770015,"ECCENTRICITY":0.0003801,"INCLINATION":97.4019,"RA_OF_ASC_NODE":151.0918,"ARG_OF_PERICENTER":292.7207,"MEAN_ANOMALY":67.3633,"EPHEMERIS_TYPE":0,"CLASSIFICATION_TYPE":"U","NORAD_CAT_ID":62621,"ELEMENT_SET_NO":999,"REV_AT_EPOCH":6370,"BSTAR":0.0016695386,"MEAN_MOTION_DOT":0.00053076,"MEAN_MOTION_DDOT":0}]
